[{"OBJECT_NAME":"SITRO-AIS 17","OBJECT_ID":"2024-199BG","EPOCH":"2026-03-09T22:41:43.974240","MEAN_MOTION":14.97395626,"ECCENTRICITY":0.0007298,"INCLINATION":97.3319,"RA_OF_ASC_NODE":274.6922,"ARG_OF_PERICENTER":55.1829,"MEAN_ANOMALY":305.008,"EPHEMERIS_TYPE":0,"CLASSIFICATION_TYPE":"U","NORAD_CAT_ID":61789,"ELEMENT_SET_NO":999,"REV_AT_EPOCH":11718,"BSTAR":0.00028776531,"MEAN_MOTION_DOT":3.293e-5,"MEAN_MOTION_DDOT":0},{"OBJECT_NAME":"STARLINK-36170","OBJECT_ID":"2025-298J","EPOCH":"2026-03-09T22:52:08.345568","MEAN_MOTION":14.9914019,"ECCENTRICITY":0.00020247,"INCLINATION":70.0025,"RA_OF_ASC_NODE":13.9165,"ARG_OF_PERICENTER":262.148,"MEAN_ANOMALY":97.9449,"EPHEMERIS_TYPE":0,"CLASSIFICATION_TYPE":"U","NORAD_CAT_ID":67083,"ELEMENT_SET_NO":999,"REV_AT_EPOCH":1325,"BSTAR":0.00012309933,"MEAN_MOTION_DOT":1.407e-5,"MEAN_MOTION_DDOT":0}]
